[{"OBJECT_NAME":"STARLINK-1132","OBJECT_ID":"2020-006A","EPOCH":"2026-03-09T21:59:55.594752","MEAN_MOTION":15.43542258,"ECCENTRICITY":0.00043223,"INCLINATION":53.1566,"RA_OF_ASC_NODE":252.8812,"ARG_OF_PERICENTER":195.3085,"MEAN_ANOMALY":164.7791,"EPHEMERIS_TYPE":0,"CLASSIFICATION_TYPE":"U","NORAD_CAT_ID":45044,"ELEMENT_SET_NO":999,"REV_AT_EPOCH":33696,"BSTAR":0.0010443803,"MEAN_MOTION_DOT":0.00047496,"MEAN_MOTION_DDOT":0},{"OBJECT_NAME":"NORBI","OBJECT_ID":"2020-068J","EPOCH":"2026-03-09T22:53:13.265664","MEAN_MOTION":15.44044955,"ECCENTRICITY":0.0005003,"INCLINATION":97.87,"RA_OF_ASC_NODE":76.4836,"ARG_OF_PERICENTER":248.0975,"MEAN_ANOMALY":111.9741,"EPHEMERIS_TYPE":0,"CLASSIFICATION_TYPE":"U","NORAD_CAT_ID":46494,"ELEMENT_SET_NO":999,"REV_AT_EPOCH":30087,"BSTAR":0.00067842261,"MEAN_MOTION_DOT":0.00030968,"MEAN_MOTION_DDOT":0}]
